{
    "CCSDS_OMM_VERS": "3.0",
    "COMMENT": "GENERATED VIA SPACE-TRACK.ORG API",
    "CREATION_DATE": "2025-05-22T17:14:14",
    "ORIGINATOR": "18 SPCS",
    "OBJECT_NAME": "GALILEO 7 (263)",
    "OBJECT_ID": "2015-017A",
    "CENTER_NAME": "EARTH",
    "REF_FRAME": "TEME",
    "TIME_SYSTEM": "UTC",
    "MEAN_ELEMENT_THEORY": "SGP4",
    "EPOCH": "2025-05-21T23:04:38.401248",
    "MEAN_MOTION": "1.70475775",
    "ECCENTRICITY": "0.00022420",
    "INCLINATION": "56.8924",
    "RA_OF_ASC_NODE": "352.2537",
    "ARG_OF_PERICENTER": "285.1673",
    "MEAN_ANOMALY": "74.8505",
    "EPHEMERIS_TYPE": "0",
    "CLASSIFICATION_TYPE": "U",
    "NORAD_CAT_ID": "40544",
    "ELEMENT_SET_NO": "999",
    "REV_AT_EPOCH": "6253",
    "BSTAR": "0.00000000000000",
    "MEAN_MOTION_DOT": "-0.00000068",
    "MEAN_MOTION_DDOT": "0.0000000000000",
    "SEMIMAJOR_AXIS": "29600.115",
    "PERIOD": "844.695",
    "APOAPSIS": "23228.616",
    "PERIAPSIS": "23215.343",
    "OBJECT_TYPE": "PAYLOAD",
    "RCS_SIZE": "LARGE",
    "COUNTRY_CODE": "ESA",
    "LAUNCH_DATE": "2015-03-27",
    "SITE": "FRGUI",
    "DECAY_DATE": null,
    "FILE": "4736220",
    "GP_ID": "288143118",
    "TLE_LINE0": "0 GALILEO 7 (263)",
    "TLE_LINE1": "1 40544U 15017A   25141.96155557 -.00000068  00000-0  00000-0 0  9992",
    "TLE_LINE2": "2 40544  56.8924 352.2537 0002242 285.1673  74.8505  1.70475775 62530"
}